start=new Date('2023-05-15T00:00:00.000Z').valueOf();
sats=[{"EPOCH":"2023-05-14T19:42:54.360000","PERIOD":"96.107","ARG_OF_PERICENTER":"268.7511","LAUNCH_DATE":"2023-02-17","TIME_SYSTEM":"UTC","SITE":"AFWTR","REF_FRAME":"TEME","MEAN_ANOMALY":"91.3299","FILE":"3908005","TLE_LINE2":"2 55632  69.9998 281.1262 0003043 268.7511  91.3299 14.98322478 14034","MEAN_ELEMENT_THEORY":"SGP4","RA_OF_ASC_NODE":"281.1262","INCLINATION":"69.9998","APOAPSIS":"574.196","MEAN_MOTION_DDOT":"0.0000000000000","CENTER_NAME":"EARTH","DECAY_DATE":null,"REV_AT_EPOCH":"1403","MEAN_MOTION_DOT":"0.00001805","SEMIMAJOR_AXIS":"6950.216","NORAD_CAT_ID":"55632","MEAN_MOTION":"14.98322478","PERIAPSIS":"569.966","TLE_LINE1":"1 55632U 23021E   23134.82146250  .00001805  00000-0  15908-3 0  9990","OBJECT_ID":"2023-021E","ECCENTRICITY":"0.00030430","OBJECT_TYPE":"PAYLOAD","RCS_SIZE":"LARGE","GP_ID":"231855557","CLASSIFICATION_TYPE":"U","OBJECT_NAME":"STARLINK-5546","EPHEMERIS_TYPE":"0","COUNTRY_CODE":"US","ELEMENT_SET_NO":"999","BSTAR":"0.00015908000000"},{"MEAN_MOTION_DOT":"0.00000777","SEMIMAJOR_AXIS":"6950.209","NORAD_CAT_ID":"55633","MEAN_MOTION":"14.98324773","PERIAPSIS":"569.872","TLE_LINE1":"1 55633U 23021F   23134.81728889  .00000777  00000-0  72907-4 0  9994","OBJECT_ID":"2023-021F","ECCENTRICITY":"0.00031690","OBJECT_TYPE":"PAYLOAD","RCS_SIZE":"LARGE","GP_ID":"231856308","CLASSIFICATION_TYPE":"U","OBJECT_NAME":"STARLINK-5498","EPHEMERIS_TYPE":"0","COUNTRY_CODE":"US","ELEMENT_SET_NO":"999","BSTAR":"0.00007290700000","EPOCH":"2023-05-14T19:36:53.760096","PERIOD":"96.107","ARG_OF_PERICENTER":"267.3906","LAUNCH_DATE":"2023-02-17","TIME_SYSTEM":"UTC","SITE":"AFWTR","REF_FRAME":"TEME","MEAN_ANOMALY":"92.6891","FILE":"3908005","TLE_LINE2":"2 55633  69.9998 281.1121 0003169 267.3906  92.6891 14.98324773 14033","MEAN_ELEMENT_THEORY":"SGP4","RA_OF_ASC_NODE":"281.1121","INCLINATION":"69.9998","APOAPSIS":"574.277","MEAN_MOTION_DDOT":"0.0000000000000","CENTER_NAME":"EARTH","DECAY_DATE":null,"REV_AT_EPOCH":"1403"},{"SITE":"AFWTR","TIME_SYSTEM":"UTC","LAUNCH_DATE":"2023-02-17","ARG_OF_PERICENTER":"269.9491","PERIOD":"96.107","EPOCH":"2023-05-14T19:48:54.693792","REV_AT_EPOCH":"1403","DECAY_DATE":null,"CENTER_NAME":"EARTH","MEAN_MOTION_DDOT":"0.0000000000000","APOAPSIS":"574.207","INCLINATION":"69.9993","RA_OF_ASC_NODE":"281.1411","MEAN_ELEMENT_THEORY":"SGP4","FILE":"3908005","TLE_LINE2":"2 55634  69.9993 281.1411 0003107 269.9491  90.1312 14.98333463 14037","REF_FRAME":"TEME","MEAN_ANOMALY":"90.1312","OBJECT_NAME":"STARLINK-5500","CLASSIFICATION_TYPE":"U","GP_ID":"231856559","RCS_SIZE":"LARGE","OBJECT_TYPE":"PAYLOAD","ECCENTRICITY":"0.00031070","OBJECT_ID":"2023-021G","TLE_LINE1":"1 55634U 23021G   23134.82563303  .00000553  00000-0  54122-4 0  9995","PERIAPSIS":"569.888","MEAN_MOTION":"14.98333463","NORAD_CAT_ID":"55634","SEMIMAJOR_AXIS":"6950.182","MEAN_MOTION_DOT":"0.00000553","BSTAR":"0.00005412200000","ELEMENT_SET_NO":"999","COUNTRY_CODE":"US","EPHEMERIS_TYPE":"0"},{"RCS_SIZE":"LARGE","GP_ID":"231857310","CLASSIFICATION_TYPE":"U","OBJECT_NAME":"STARLINK-5495","OBJECT_ID":"2023-021H","ECCENTRICITY":"0.00032950","OBJECT_TYPE":"PAYLOAD","MEAN_MOTION":"15.69911915","PERIAPSIS":"356.931","TLE_LINE1":"1 55635U 23021H   23134.80756299 -.00002364  00000-0 -17903-4 0  9992","MEAN_MOTION_DOT":"-0.00002364","SEMIMAJOR_AXIS":"6737.286","NORAD_CAT_ID":"55635","BSTAR":"-0.00001790300000","ELEMENT_SET_NO":"999","EPHEMERIS_TYPE":"0","COUNTRY_CODE":"US","ARG_OF_PERICENTER":"264.5534","LAUNCH_DATE":"2023-02-17","TIME_SYSTEM":"UTC","SITE":"AFWTR","EPOCH":"2023-05-14T19:22:53.442336","PERIOD":"91.725","REV_AT_EPOCH":"1435","APOAPSIS":"361.371","MEAN_MOTION_DDOT":"0.0000000000000","CENTER_NAME":"EARTH","DECAY_DATE":null,"MEAN_ELEMENT_THEORY":"SGP4","RA_OF_ASC_NODE":"268.0443","INCLINATION":"69.9987","MEAN_ANOMALY":"95.5286","REF_FRAME":"TEME","FILE":"3908005","TLE_LINE2":"2 55635  69.9987 268.0443 0003295 264.5534  95.5286 15.69911915 14354"},{"ARG_OF_PERICENTER":"269.6388","SITE":"AFWTR","TIME_SYSTEM":"UTC","LAUNCH_DATE":"2023-02-17","EPOCH":"2023-05-14T19:24:52.049664","PERIOD":"96.107","MEAN_ELEMENT_THEORY":"SGP4","INCLINATION":"69.9999","RA_OF_ASC_NODE":"281.0843","REF_FRAME":"TEME","MEAN_ANOMALY":"90.4240","FILE":"3908005","TLE_LINE2":"2 55636  69.9999 281.0843 0004637 269.6388  90.4240 14.98329203 14034","REV_AT_EPOCH":"1403","MEAN_MOTION_DDOT":"0.0000000000000","APOAPSIS":"575.283","DECAY_DATE":null,"CENTER_NAME":"EARTH","MEAN_MOTION":"14.98329203","TLE_LINE1":"1 55636U 23021J   23134.80893576  .00000130  00000-0  18725-4 0  9993","PERIAPSIS":"568.838","MEAN_MOTION_DOT":"0.00000130","NORAD_CAT_ID":"55636","SEMIMAJOR_AXIS":"6950.195","CLASSIFICATION_TYPE":"U","GP_ID":"231856058","RCS_SIZE":"LARGE","OBJECT_NAME":"STARLINK-5218","ECCENTRICITY":"0.00046370","OBJECT_ID":"2023-021J","OBJECT_TYPE":"PAYLOAD","EPHEMERIS_TYPE":"0","COUNTRY_CODE":"US","BSTAR":"0.00001872500000","ELEMENT_SET_NO":"999"},{"ECCENTRICITY":"0.00031390","OBJECT_ID":"2023-021K","OBJECT_TYPE":"PAYLOAD","GP_ID":"231855808","CLASSIFICATION_TYPE":"U","RCS_SIZE":"LARGE","OBJECT_NAME":"STARLINK-5062","MEAN_MOTION_DOT":"-0.00002072","NORAD_CAT_ID":"55637","SEMIMAJOR_AXIS":"6737.275","MEAN_MOTION":"15.69915873","TLE_LINE1":"1 55637U 23021K   23134.80745543 -.00002072  00000-0 -15477-4 0  9994","PERIAPSIS":"357.025","ELEMENT_SET_NO":"999","BSTAR":"-0.00001547700000","EPHEMERIS_TYPE":"0","COUNTRY_CODE":"US","EPOCH":"2023-05-14T19:22:44.149152","PERIOD":"91.725","ARG_OF_PERICENTER":"264.6329","SITE":"AFWTR","LAUNCH_DATE":"2023-02-17","TIME_SYSTEM":"UTC","MEAN_MOTION_DDOT":"0.0000000000000","APOAPSIS":"361.255","DECAY_DATE":null,"CENTER_NAME":"EARTH","REV_AT_EPOCH":"1435","MEAN_ANOMALY":"95.4508","REF_FRAME":"TEME","TLE_LINE2":"2 55637  69.9995 268.0454 0003139 264.6329  95.4508 15.69915873 14350","FILE":"3908005","MEAN_ELEMENT_THEORY":"SGP4","INCLINATION":"69.9995","RA_OF_ASC_NODE":"268.0454"},{"PERIOD":"96.107","EPOCH":"2023-05-14T19:30:53.011584","SITE":"AFWTR","TIME_SYSTEM":"UTC","LAUNCH_DATE":"2023-02-17","ARG_OF_PERICENTER":"271.8207","TLE_LINE2":"2 55638  69.9998 281.0979 0003063 271.8207  88.2601 14.98329966 14034","FILE":"3908005","MEAN_ANOMALY":"88.2601","REF_FRAME":"TEME","INCLINATION":"69.9998","RA_OF_ASC_NODE":"281.0979","MEAN_ELEMENT_THEORY":"SGP4","DECAY_DATE":null,"CENTER_NAME":"EARTH","MEAN_MOTION_DDOT":"0.0000000000000","APOAPSIS":"574.187","REV_AT_EPOCH":"1403","NORAD_CAT_ID":"55638","SEMIMAJOR_AXIS":"6950.193","MEAN_MOTION_DOT":"0.00000184","TLE_LINE1":"1 55638U 23021L   23134.81311356  .00000184  00000-0  23210-4 0  9991","PERIAPSIS":"569.929","MEAN_MOTION":"14.98329966","OBJECT_TYPE":"PAYLOAD","ECCENTRICITY":"0.00030630","OBJECT_ID":"2023-021L","OBJECT_NAME":"STARLINK-5507","GP_ID":"231857060","CLASSIFICATION_TYPE":"U","RCS_SIZE":"LARGE","COUNTRY_CODE":"US","EPHEMERIS_TYPE":"0","ELEMENT_SET_NO":"999","BSTAR":"0.00002321000000"},{"EPOCH":"2023-05-14T20:53:43.725408","PERIOD":"91.725","ARG_OF_PERICENTER":"276.2037","LAUNCH_DATE":"2023-02-17","TIME_SYSTEM":"UTC","SITE":"AFWTR","REF_FRAME":"TEME","MEAN_ANOMALY":"83.8874","FILE":"3907993","TLE_LINE2":"2 55639  70.0004 267.8632 0002500 276.2037  83.8874 15.69915162 14063","MEAN_ELEMENT_THEORY":"SGP4","RA_OF_ASC_NODE":"267.8632","INCLINATION":"70.0004","APOAPSIS":"360.826","MEAN_MOTION_DDOT":"0.0000000000000","CENTER_NAME":"EARTH","DECAY_DATE":null,"REV_AT_EPOCH":"1406","MEAN_MOTION_DOT":"-0.00000540","SEMIMAJOR_AXIS":"6737.277","NORAD_CAT_ID":"55639","MEAN_MOTION":"15.69915162","PERIAPSIS":"357.457","TLE_LINE1":"1 55639U 23021M   23134.87064497 -.00000540  00000-0 -27309-5 0  9991","OBJECT_ID":"2023-021M","ECCENTRICITY":"0.00025000","OBJECT_TYPE":"PAYLOAD","RCS_SIZE":"LARGE","GP_ID":"231830470","CLASSIFICATION_TYPE":"U","OBJECT_NAME":"STARLINK-5508","EPHEMERIS_TYPE":"0","COUNTRY_CODE":"US","ELEMENT_SET_NO":"999","BSTAR":"-0.00000273090000"},{"EPHEMERIS_TYPE":"0","COUNTRY_CODE":"US","BSTAR":"-0.00003227400000","ELEMENT_SET_NO":"999","MEAN_MOTION":"15.69911655","PERIAPSIS":"356.786","TLE_LINE1":"1 55640U 23021N   23134.80650201 -.00004090  00000-0 -32274-4 0  9990","MEAN_MOTION_DOT":"-0.00004090","SEMIMAJOR_AXIS":"6737.287","NORAD_CAT_ID":"55640","RCS_SIZE":"LARGE","GP_ID":"231857722","CLASSIFICATION_TYPE":"U","OBJECT_NAME":"STARLINK-5069","OBJECT_ID":"2023-021N","ECCENTRICITY":"0.00035110","OBJECT_TYPE":"PAYLOAD","MEAN_ELEMENT_THEORY":"SGP4","RA_OF_ASC_NODE":"268.0407","INCLINATION":"70.0005","REF_FRAME":"TEME","MEAN_ANOMALY":"96.1696","FILE":"3908012","TLE_LINE2":"2 55640  70.0005 268.0407 0003511 263.9100  96.1696 15.69911655 14057","REV_AT_EPOCH":"1405","APOAPSIS":"361.517","MEAN_MOTION_DDOT":"0.0000000000000","CENTER_NAME":"EARTH","DECAY_DATE":null,"ARG_OF_PERICENTER":"263.9100","LAUNCH_DATE":"2023-02-17","TIME_SYSTEM":"UTC","SITE":"AFWTR","EPOCH":"2023-05-14T19:21:21.773664","PERIOD":"91.725"},{"PERIOD":"91.723","EPOCH":"2023-05-14T17:50:21.317856","SITE":"AFWTR","TIME_SYSTEM":"UTC","LAUNCH_DATE":"2023-02-17","ARG_OF_PERICENTER":"286.0016","TLE_LINE2":"2 55641  70.0000 268.2206 0004121 286.0016  74.0725 15.69938204 14341","FILE":"3908005","MEAN_ANOMALY":"74.0725","REF_FRAME":"TEME","INCLINATION":"70.0000","RA_OF_ASC_NODE":"268.2206","MEAN_ELEMENT_THEORY":"SGP4","DECAY_DATE":null,"CENTER_NAME":"EARTH","MEAN_MOTION_DDOT":"0.0000000000000","APOAPSIS":"361.852","REV_AT_EPOCH":"1434","NORAD_CAT_ID":"55641","SEMIMAJOR_AXIS":"6737.211","MEAN_MOTION_DOT":"0.00005310","TLE_LINE1":"1 55641U 23021P   23134.74330229  .00005310  00000-0  45874-4 0  9993","PERIAPSIS":"356.299","MEAN_MOTION":"15.69938204","OBJECT_TYPE":"PAYLOAD","ECCENTRICITY":"0.00041210","OBJECT_ID":"2023-021P","OBJECT_NAME":"STARLINK-5065","GP_ID":"231856309","CLASSIFICATION_TYPE":"U","RCS_SIZE":"LARGE","COUNTRY_CODE":"US","EPHEMERIS_TYPE":"0","ELEMENT_SET_NO":"999","BSTAR":"0.00004587400000"}];
